OBJECT_NAME,OBJECT_ID,EPOCH,MEAN_MOTION,ECCENTRICITY,INCLINATION,RA_OF_ASC_NODE,ARG_OF_PERICENTER,MEAN_ANOMALY,EPHEMERIS_TYPE,CLASSIFICATION_TYPE,NORAD_CAT_ID,ELEMENT_SET_NO,REV_AT_EPOCH,BSTAR,MEAN_MOTION_DOT,MEAN_MOTION_DDOT
ONEWEB-0369,2021-090S,2026-07-12T19:23:35.037024,13.19726484,.0001965,87.9177,299.8723,105.3485,254.7865,0,U,49295,999,22979,.12835E-3,.64E-6,0
ONEWEB-0370,2021-090T,2026-07-13T03:46:05.003904,13.20772426,.0002389,87.9181,269.2667,91.5029,268.6378,0,U,49296,999,23329,.22342E-3,.104E-5,0
ONEWEB-0371,2021-090U,2026-07-12T19:34:57.095040,13.19725131,.0002054,87.9192,299.8644,102.3778,257.7584,0,U,49297,999,22983,-.49039E-4,-.7E-7,0
ONEWEB-0372,2021-090V,2026-07-13T05:20:24.325728,13.20770180,.0002104,87.9165,269.2536,103.1235,257.0133,0,U,49298,999,23327,-.1426E-3,-.45E-6,0
ONEWEB-0373,2021-090W,2026-07-13T04:07:53.062752,13.20772777,.0002026,87.9180,269.2648,98.7962,261.3401,0,U,49299,999,23445,-.12304E-3,-.37E-6,0
ONEWEB-0374,2021-090X,2026-07-13T05:27:03.870432,13.14503418,.0001584,87.8971,284.5102,87.6728,272.4583,0,U,49300,999,23098,.12973E-3,.61E-6,0
ONEWEB-0375,2021-090Y,2026-07-12T16:56:22.898112,13.20772455,.0001756,87.9186,269.3493,84.8852,275.2481,0,U,49301,999,23389,.14732E-3,.73E-6,0
ONEWEB-0376,2021-090Z,2026-07-12T19:32:40.112160,13.19726313,.0001985,87.9192,299.8641,106.2175,253.9176,0,U,49302,999,22983,.17886E-3,.85E-6,0
ONEWEB-0377,2021-090AA,2026-07-12T16:37:11.352864,13.20773500,.0001917,87.9192,269.3544,93.1605,266.9747,0,U,49303,999,23388,.85036E-4,.48E-6,0
ONEWEB-0378,2021-090AB,2026-07-12T17:06:17.687808,13.20771806,.0001898,87.9182,269.3539,99.3553,260.7795,0,U,49304,999,23315,.31944E-4,.26E-6,0
ONEWEB-0379,2021-090AC,2026-07-13T05:20:13.235424,13.14503494,.0001903,87.8975,284.5208,99.2106,260.9239,0,U,49305,999,23098,-.2833E-3,-.92E-6,0
ONEWEB-0380,2021-090AD,2026-07-12T19:28:08.043744,13.19726655,.0001977,87.9176,299.8698,98.7697,261.3660,0,U,49306,999,22980,.3082E-3,.136E-5,0
ONEWEB-0381,2021-090AE,2026-07-12T18:21:12.577824,13.20773976,.0001819,87.9190,269.3445,91.1333,269.0009,0,U,49307,999,23320,-.14011E-5,.12E-6,0
ONEWEB-0382,2021-090AF,2026-07-12T18:01:50.890944,13.20771792,.0001743,87.9185,269.3413,99.4770,260.6560,0,U,49308,999,23319,.35964E-4,.28E-6,0
ONEWEB-0383,2021-090AG,2026-07-13T05:11:05.133696,13.14503310,.0001845,87.8968,284.5151,102.4958,257.6378,0,U,49309,999,23101,-.20864E-3,-.65E-6,0
ONEWEB-0384,2021-090AH,2026-07-13T04:38:50.574624,13.20813838,.0001582,87.9187,269.2967,97.9272,262.2041,0,U,49310,999,23326,-.91523E-4,-.24E-6,0
ONEWEB-0385,2021-090AJ,2026-07-12T17:52:07.345344,13.20769522,.0001702,87.9170,269.3500,123.9054,236.2242,0,U,49311,999,23317,.60845E-5,.15E-6,0
ONEWEB-0386,2021-090AK,2026-07-12T18:16:22.105344,13.20772862,.0001743,87.9190,269.3361,98.5549,261.5782,0,U,49312,999,23319,.59788E-3,.256E-5,0
ONEWEB-0387,2021-090AL,2026-07-12T17:54:32.976864,13.20769044,.000201,87.9174,269.3584,89.4846,270.6518,0,U,49313,999,23319,.22831E-3,.106E-5,0
ONEWEB-0388,2021-090AM,2026-07-12T19:21:18.531072,13.19726355,.000186,87.9186,299.8677,100.2763,259.8580,0,U,49314,999,22979,-.73472E-4,-.16E-6,0
ONEWEB-0389,2021-132A,2026-07-12T22:35:08.480832,13.17650466,.0001785,87.9146,0.7440,82.2321,277.9013,0,U,50469,999,22147,-.89273E-4,-.22E-6,0
ONEWEB-0390,2021-132B,2026-07-12T22:37:34.190112,13.17651235,.0002082,87.9143,0.7443,91.4675,268.6695,0,U,50470,999,22147,.20542E-3,.93E-6,0
ONEWEB-0391,2021-132C,2026-07-12T20:50:39.258816,13.17649767,.0002185,87.9143,0.7696,70.9850,289.1518,0,U,50471,999,22146,-.24978E-3,-.84E-6,0
ONEWEB-0392,2021-132D,2026-07-12T21:34:23.969856,13.17649831,.0002002,87.9157,0.7335,84.2851,275.8509,0,U,50472,999,22150,-.28667E-3,-.98E-6,0
ONEWEB-0393,2021-132E,2026-07-12T20:59:10.154976,13.17647676,.0001837,87.9144,0.7539,86.8204,273.3138,0,U,50473,999,22149,-.24202E-4,.3E-7,0
ONEWEB-0394,2021-132F,2026-07-12T21:30:24.502752,13.18684159,.0001753,87.9194,330.3300,97.5898,262.5433,0,U,50474,999,22498,.32513E-4,.26E-6,0
ONEWEB-0395,2021-132G,2026-07-12T21:05:50.814240,13.11417777,.0002031,87.8879,15.9505,84.7474,275.3885,0,U,50475,999,21908,.17483E-2,.632E-5,0
ONEWEB-0396,2021-132H,2026-07-12T21:20:42.656640,13.18686138,.0001739,87.9183,330.3461,100.1952,259.9376,0,U,50476,999,22502,-.70848E-4,-.15E-6,0
ONEWEB-0397,2021-132J,2026-07-12T21:42:32.700096,13.18698603,.0001231,87.9172,330.3383,104.2327,255.8942,0,U,50477,999,22500,.88503E-3,.362E-5,0
ONEWEB-0398,2021-132K,2026-07-12T22:09:18.763776,13.11416785,.0002289,87.8890,15.9347,91.2105,268.9285,0,U,50478,999,21898,-.15662E-2,-.542E-5,0
ONEWEB-0399,2021-132L,2026-07-12T21:49:47.076960,13.11415488,.0001564,87.8899,15.9493,73.3123,286.8176,0,U,50479,999,21897,-.10077E-2,-.344E-5,0
