ONEWEB-0369             
1 49295U 21090S   26193.80804441  .00000064  00000+0  12835-3 0  9992
2 49295  87.9177 299.8723 0001965 105.3485 254.7865 13.19726484229798
ONEWEB-0370             
1 49296U 21090T   26194.15700236  .00000104  00000+0  22342-3 0  9998
2 49296  87.9181 269.2667 0002389  91.5029 268.6378 13.20772426233295
ONEWEB-0371             
1 49297U 21090U   26193.81593860 -.00000007  00000+0 -49039-4 0  9991
2 49297  87.9192 299.8644 0002054 102.3778 257.7584 13.19725131229835
ONEWEB-0372             
1 49298U 21090V   26194.22250377 -.00000045  00000+0 -14260-3 0  9990
2 49298  87.9165 269.2536 0002104 103.1235 257.0133 13.20770180233272
ONEWEB-0373             
1 49299U 21090W   26194.17214193 -.00000037  00000+0 -12304-3 0  9999
2 49299  87.9180 269.2648 0002026  98.7962 261.3401 13.20772777234454
ONEWEB-0374             
1 49300U 21090X   26194.22712813  .00000061  00000+0  12973-3 0  9997
2 49300  87.8971 284.5102 0001584  87.6728 272.4583 13.14503418230989
ONEWEB-0375             
1 49301U 21090Y   26193.70582058  .00000073  00000+0  14732-3 0  9994
2 49301  87.9186 269.3493 0001756  84.8852 275.2481 13.20772455233898
ONEWEB-0376             
1 49302U 21090Z   26193.81435315  .00000085  00000+0  17886-3 0  9996
2 49302  87.9192 299.8641 0001985 106.2175 253.9176 13.19726313229833
ONEWEB-0377             
1 49303U 21090AA  26193.69249251  .00000048  00000+0  85036-4 0  9997
2 49303  87.9192 269.3544 0001917  93.1605 266.9747 13.20773500233885
ONEWEB-0378             
1 49304U 21090AB  26193.71270472  .00000026  00000+0  31944-4 0  9995
2 49304  87.9182 269.3539 0001898  99.3553 260.7795 13.20771806233159
ONEWEB-0379             
1 49305U 21090AC  26194.22237541 -.00000092  00000+0 -28330-3 0  9992
2 49305  87.8975 284.5208 0001903  99.2106 260.9239 13.14503494230983
ONEWEB-0380             
1 49306U 21090AD  26193.81120421  .00000136  00000+0  30820-3 0  9999
2 49306  87.9176 299.8698 0001977  98.7697 261.3660 13.19726655229803
ONEWEB-0381             
1 49307U 21090AE  26193.76472891  .00000012  00000+0 -14011-5 0  9995
2 49307  87.9190 269.3445 0001819  91.1333 269.0009 13.20773976233202
ONEWEB-0382             
1 49308U 21090AF  26193.75128346  .00000028  00000+0  35964-4 0  9993
2 49308  87.9185 269.3413 0001743  99.4770 260.6560 13.20771792233195
ONEWEB-0383             
1 49309U 21090AG  26194.21603164 -.00000065  00000+0 -20864-3 0  9997
2 49309  87.8968 284.5151 0001845 102.4958 257.6378 13.14503310231012
ONEWEB-0384             
1 49310U 21090AH  26194.19364091 -.00000024  00000+0 -91523-4 0  9995
2 49310  87.9187 269.2967 0001582  97.9272 262.2041 13.20813838233262
ONEWEB-0385             
1 49311U 21090AJ  26193.74452946  .00000015  00000+0  60845-5 0  9995
2 49311  87.9170 269.3500 0001702 123.9054 236.2242 13.20769522233175
ONEWEB-0386             
1 49312U 21090AK  26193.76136696  .00000256  00000+0  59788-3 0  9998
2 49312  87.9190 269.3361 0001743  98.5549 261.5782 13.20772862233197
ONEWEB-0387             
1 49313U 21090AL  26193.74621501  .00000106  00000+0  22831-3 0  9994
2 49313  87.9174 269.3584 0002010  89.4846 270.6518 13.20769044233190
ONEWEB-0388             
1 49314U 21090AM  26193.80646448 -.00000016  00000+0 -73472-4 0  9999
2 49314  87.9186 299.8677 0001860 100.2763 259.8580 13.19726355229792
ONEWEB-0389             
1 50469U 21132A   26193.94107038 -.00000022  00000+0 -89273-4 0  9994
2 50469  87.9146   0.7440 0001785  82.2321 277.9013 13.17650466221479
ONEWEB-0390             
1 50470U 21132B   26193.94275683  .00000093  00000+0  20542-3 0  9997
2 50470  87.9143   0.7443 0002082  91.4675 268.6695 13.17651235221474
ONEWEB-0391             
1 50471U 21132C   26193.86850994 -.00000084  00000+0 -24978-3 0  9992
2 50471  87.9143   0.7696 0002185  70.9850 289.1518 13.17649767221464
ONEWEB-0392             
1 50472U 21132D   26193.89888854 -.00000098  00000+0 -28667-3 0  9996
2 50472  87.9157   0.7335 0002002  84.2851 275.8509 13.17649831221506
ONEWEB-0393             
1 50473U 21132E   26193.87442309  .00000003  00000+0 -24202-4 0  9993
2 50473  87.9144   0.7539 0001837  86.8204 273.3138 13.17647676221498
ONEWEB-0394             
1 50474U 21132F   26193.89611693  .00000026  00000+0  32513-4 0  9998
2 50474  87.9194 330.3300 0001753  97.5898 262.5433 13.18684159224980
ONEWEB-0395             
1 50475U 21132G   26193.87906035  .00000632  00000+0  17483-2 0  9994
2 50475  87.8879  15.9505 0002031  84.7474 275.3885 13.11417777219082
ONEWEB-0396             
1 50476U 21132H   26193.88938260 -.00000015  00000+0 -70848-4 0  9994
2 50476  87.9183 330.3461 0001739 100.1952 259.9376 13.18686138225025
ONEWEB-0397             
1 50477U 21132J   26193.90454514  .00000362  00000+0  88503-3 0  9992
2 50477  87.9172 330.3383 0001231 104.2327 255.8942 13.18698603225007
ONEWEB-0398             
1 50478U 21132K   26193.92313384 -.00000542  00000+0 -15662-2 0  9991
2 50478  87.8890  15.9347 0002289  91.2105 268.9285 13.11416785218989
ONEWEB-0399             
1 50479U 21132L   26193.90957265 -.00000344  00000+0 -10077-2 0  9997
2 50479  87.8899  15.9493 0001564  73.3123 286.8176 13.11415488218973
